OUFTI-1                 
1 41458U 16025C   21333.67011711  .00007271  00000+0  34233-3 0  9996
2 41458  98.1646 121.2276 0153827 221.6408 137.3025 15.09932410307395
E-ST@R-II               
1 41459U 16025D   21333.63938316  .00004877  00000+0  23401-3 0  9996
2 41459  98.1639 120.0598 0156302 225.1067 133.7393 15.09232857307322
AAUSAT 4                
1 41460U 16025E   21333.70303198  .00008970  00000+0  40138-3 0  9994
2 41460  98.1570 124.8917 0141594 206.0723 153.3363 15.12918974307688
AIST-2D (RS-48)         
1 41465U 16026B   21333.84912245  .00003748  00000+0  10400-3 0  9991
2 41465  97.0814 212.1542 0011717 129.2554 297.0126 15.37448340312836
SAMSAT-218D             
1 41466U 16026C   21333.71916072  .00064097  00000+0  58924-3 0  9997
2 41466  97.1440 243.2651 0006643  53.3718 337.5815 15.67471809314601
NUSAT-1 (FRESCO)        
1 41557U 16033B   21333.94073363  .00003633  00000+0  12528-3 0  9997
2 41557  97.3929  67.0539 0012767  15.0765  97.1179 15.30568855306830
NUSAT-2 (BATATA)        
1 41558U 16033C   21333.90974240  .00003810  00000+0  12295-3 0  9996
2 41558  97.4072  71.6461 0011593   7.6099 102.0232 15.32699869307052
CARTOSAT-2C             
1 41599U 16040A   21334.16668706  .00001816  00000+0  89350-4 0  9996
2 41599  97.4905  30.1820 0014628 153.9198 291.2059 15.19205334301673
SATHYABAMASAT           
1 41600U 16040B   21333.36908038  .00006344  00000+0  23733-3 0  9998
2 41600  97.2526  26.1006 0014103 111.1301 249.1447 15.27567744302314
LAPAN-A3                
1 41603U 16040E   21333.89013005  .00000356  00000+0  19447-4 0  9995
2 41603  97.2352  14.3503 0014459 136.6699 347.0557 15.20179556301717
BIROS                   
1 41604U 16040F   21333.73197538  .00001448  00000+0  64362-4 0  9992
2 41604  97.2413  20.5015 0013573 115.0870 245.1777 15.22992842302054
SWAYAM                  
1 41607U 16040J   21333.56753856  .00005362  00000+0  20375-3 0  9991
2 41607  97.2480  24.8893 0013895 111.1024 249.1703 15.27121368302232
BEESAT-4                
1 41619U 16040W   21333.57027228  .00004964  00000+0  19140-3 0  9997
2 41619  97.2493  24.9433 0012036 105.4321 254.8249 15.26695004290193
3CAT-2                  
1 41732U 16051B   21333.66586185  .00003467  00000+0  12225-3 0  9991
2 41732  97.3766 252.6002 0010765 286.4226 117.6905 15.29891560294755
PRATHAM                 
1 41783U 16059A   21333.41167065  .00000157  00000+0  39117-4 0  9993
2 41783  97.9434  17.6813 0034847  85.9762 274.5423 14.63194889276375
ALSAT 1N                
1 41789U 16059G   21333.78678536  .00000153  00000+0  37439-4 0  9990
2 41789  97.9472  22.1349 0029565  69.6518 290.7847 14.64489705276642
LISHUI 1-01             
1 41845U 16066E   21333.88645877  .00005522  00000+0  67614-3 0  9996
2 41845  98.7319  86.5373 0259585 330.9987  27.7033 14.62566642267555
CARTOSAT-2D             
1 41948U 17008A   21333.79410183  .00001088  00000+0  54803-4 0  9997
2 41948  97.4211  31.4867 0005926 313.4507  46.6225 15.19261987265485
NAYIF-1 (EO-88)         
1 42017U 17008BX  21333.44311149  .00006232  00000+0  22040-3 0  9992
2 42017  97.2984  38.0408 0004430 231.6919 128.3924 15.29513744266464
ZHUHAI-1 02 (CAS-4B)    
1 42759U 17034B   21333.56965074  .00000935  00000+0  68853-4 0  9996
2 42759  43.0191 353.1215 0006688 116.7852  25.7470 15.10572109246115
ZHUHAI-1 01 (CAS-4A)    
1 42761U 17034D   21333.93488124  .00000926  00000+0  68182-4 0  9991
2 42761  43.0194 350.0460 0007040 122.2613 309.9907 15.10660307246175
UCLSAT                  
1 42765U 17036A   21333.58065219  .00004314  00000+0  17093-3 0  9993
2 42765  97.2294  17.8090 0009270 320.9973  39.0596 15.25887290247344
NIUSAT                  
1 42766U 17036B   21333.54868689  .00003080  00000+0  13164-3 0  9996
2 42766  97.2307  13.6721 0013449 318.8355  41.1867 15.23507976246340
CARTOSAT-2E             
1 42767U 17036C   21333.89727833  .00001061  00000+0  53597-4 0  9992
2 42767  97.4838  31.6437 0008547   1.9479 112.2216 15.19226072246063
LITUANICASAT-2          
1 42768U 17036D   21333.60129728  .00008236  00000+0  30251-3 0  9993
2 42768  97.2378  19.2352 0011467 304.3597  55.6558 15.28113489246678
AALTO-1                 
1 42775U 17036L   21333.79650284  .00002395  00000+0  10363-3 0  9999
2 42775  97.2271  14.0604 0011990 317.7755  42.2558 15.23314213246367
URSA MAIOR              
1 42776U 17036M   21333.83287105  .00002732  00000+0  11669-3 0  9998
2 42776  97.2285  14.6633 0011743 316.7319  43.2995 15.23646397246392
COMPASS 2               
1 42777U 17036N   21333.59317936  .00006066  00000+0  23061-3 0  9991
2 42777  97.2360  19.1631 0009736 307.5096  52.5258 15.27100438246608
MAX VALIER SAT          
1 42778U 17036P   21333.50904654  .00002871  00000+0  11998-3 0  9998
2 42778  97.2355  16.5858 0010332 320.1821  39.8658 15.24358040246429
PEGASUS                 
1 42784U 17036V   21333.93886748  .00003909  00000+0  15761-3 0  9990
2 42784  97.2304  17.5842 0009921 321.8037  38.2498 15.25352750246577
NUDTSAT                 
1 42787U 17036Y   21333.90680011  .00004194  00000+0  15677-3 0  9998
2 42787  97.2340  20.5656 0009425 315.6590  44.3897 15.27846254246582
SUCHAI                  
1 42788U 17036Z   21333.90821174  .00004540  00000+0  17720-3 0  9992
2 42788  97.2311  18.7797 0009328 318.1748  41.8777 15.26363590246711
SKCUBE                  
1 42789U 17036AA  21333.57665176  .00004309  00000+0  17012-3 0  9991
2 42789  97.2308  18.0841 0009294 320.1859  39.8697 15.26006681246565
VZLUSAT-1               
1 42790U 17036AB  21333.57719397  .00006217  00000+0  23140-3 0  9997
2 42790  97.2341  20.2304 0008425 313.9446  46.1098 15.27803489246681
ROBUSTA-1B              
1 42792U 17036AD  21333.58268693  .00004438  00000+0  17361-3 0  9999
2 42792  97.2310  18.5394 0008904 320.6570  39.4021 15.26299198246601
D-SAT                   
1 42794U 17036AF  21333.84644945  .00001106  00000+0  99328-4 0  9991
2 42794  97.4553 344.9144 0125889  33.7040 327.2104 14.91796869241714
NORSAT 2                
1 42828U 17042D   21333.42189274  .00000975  00000+0  10109-3 0  9991
2 42828  97.4520 195.7270 0013321 318.8238  41.1976 14.92079892238335
TECHNOSAT               
1 42829U 17042E   21333.84446060  .00000501  00000+0  55278-4 0  9999
2 42829  97.4427 194.3712 0013147 319.8884  40.1364 14.91415056238337
2017-042F               
1 42830U 17042F   21333.60672359  .00001483  00000+0  14645-3 0  9999
2 42830  97.4566 197.4626 0012974 311.7301  48.2809 14.93327783238449
FLYING LAPTOP           
1 42831U 17042G   21333.75001460 -.00000094  00000+0 -41731-5 0  9992
2 42831  97.4441 194.5504 0013122 320.8246  39.2036 14.91408442238329
CORVUS BC2              
1 42846U 17042X   21333.84429611  .00000639  00000+0  67405-4 0  9998
2 42846  97.4460 197.1726 0008377 311.9525  48.0980 14.92434801238503
CORVUS BC1              
1 42847U 17042Y   21333.87126294  .00000277  00000+0  32057-4 0  9996
2 42847  97.4463 197.4674 0007998 311.2600  48.7930 14.92530606238510
SIMPL                   
1 42983U 98067NF  21333.95165323  .00021979  00000+0  17161-3 0  9998
2 42983  51.6334 136.0455 0003050 243.8051 116.2633 15.71585611233386
CZ-4C R/B               
1 43012U 17072C   21333.53663958  .00000116  00000+0  35432-4 0  9992
2 43012  98.7204 355.8210 0126940 208.1516 151.2779 14.56223350214764
RADFXSAT (FOX-1B)       
1 43017U 17073E   21333.93804335  .00001093  00000+0  87801-4 0  9990
2 43017  97.6923 231.2517 0254742 120.0476 242.6269 14.79975066217597
EAGLESAT 1              
1 43018U 17073F   21333.43625469  .00001956  00000+0  15010-3 0  9995
2 43018  97.6942 231.9708 0250425 117.3799 245.3136 14.81290633217461
ECAMSAT                 
1 43019U 98067NG  21333.33258192  .00664665  26559-3  50656-3 0  9990
2 43019  51.6311  78.9846 0007232 332.0080  28.0546 16.14436456316407
INS-1C                  
1 43116U 18004F   21333.60840604  .00004179  00000+0  16440-3 0  9996
2 43116  97.3997  46.4895 0008218 350.3021   9.8058 15.26173332215821
FLOCK 3P'-3             
1 43119U 18004J   21333.68293606  .00002459  00000+0  10152-3 0  9994
2 43119  97.3985  45.1737 0009277 359.1409   0.9811 15.24943989215757
FLOCK 3P'-2             
1 43120U 18004K   21333.63208612  .00002512  00000+0  10481-3 0  9999
2 43120  97.3994  44.8497 0009429 359.9934   0.1302 15.24565682215722
FLOCK 3P'-1             
1 43121U 18004L   21333.89573462  .00007716  00000+0  27276-3 0  9997
2 43121  97.3989  47.9429 0007644 347.3029  12.8018 15.29435681215880
FLOCK 3P'-4             
1 43122U 18004M   21333.62421663  .00001916  00000+0  80409-4 0  9998
2 43122  97.4000  44.9758 0009258   1.4556 358.6707 15.24656280215728
MICROMAS-2A             
1 43131U 18004W   21333.46728689  .00007880  00000+0  28179-3 0  9999
2 43131  97.3983  48.3728 0007451 349.8103  10.2985 15.29051833215965
PICSAT                  
1 43132U 18004X   21333.59651857  .00004820  00000+0  18467-3 0  9996
2 43132  97.3956  46.6228 0008336 356.6251   3.4930 15.26973302215870
CNUSAIL-1               
1 43133U 18004Y   21333.67865365  .00003055  00000+0  12279-3 0  9991
2 43133  97.3919  45.3688 0008751 359.4856   0.6372 15.25666403215812
2018-004Z               
1 43134U 18004Z   21333.69137099  .00004190  00000+0  16334-3 0  9997
2 43134  97.3946  46.2729 0008422 358.4436   1.6775 15.26476175215866
FOX-1D (AO-92)          
1 43137U 18004AC  21333.87873916  .00003557  00000+0  14048-3 0  9991
2 43137  97.3927  46.1591 0008256 359.0353   1.0868 15.26144607215885
STEP CUBE LAB           
1 43138U 18004AD  21333.64497288  .00006366  00000+0  23240-3 0  9996
2 43138  97.3982  48.2642 0007568 354.8124   5.3036 15.28453926215974
XIAOXIANG-2             
1 43155U 18008A   21333.83638907  .00002241  00000+0  12986-3 0  9998
2 43155  97.3828  33.7066 0018521 114.9721 356.5220 15.13058170213071
